[{"OBJECT_NAME":"STARLINK-3156","OBJECT_ID":"2021-104BC","EPOCH":"2025-09-14T09:36:17.012160","MEAN_MOTION":15.0882145,"ECCENTRICITY":0.00017228,"INCLINATION":53.2161,"RA_OF_ASC_NODE":290.5172,"ARG_OF_PERICENTER":92.0883,"MEAN_ANOMALY":268.0307,"EPHEMERIS_TYPE":0,"CLASSIFICATION_TYPE":"U","NORAD_CAT_ID":49458,"ELEMENT_SET_NO":999,"REV_AT_EPOCH":21216,"BSTAR":0.00025479532,"MEAN_MOTION_DOT":3.767e-5,"MEAN_MOTION_DDOT":0},{"OBJECT_NAME":"STARLINK-3141","OBJECT_ID":"2021-104BD","EPOCH":"2025-09-14T09:20:21.898176","MEAN_MOTION":15.08832824,"ECCENTRICITY":0.0001554,"INCLINATION":53.2176,"RA_OF_ASC_NODE":290.5652,"ARG_OF_PERICENTER":71.033,"MEAN_ANOMALY":289.083,"EPHEMERIS_TYPE":0,"CLASSIFICATION_TYPE":"U","NORAD_CAT_ID":49459,"ELEMENT_SET_NO":999,"REV_AT_EPOCH":21216,"BSTAR":-1.2800202e-5,"MEAN_MOTION_DOT":-4.92e-6,"MEAN_MOTION_DDOT":0},{"OBJECT_NAME":"STARLINK-3140","OBJECT_ID":"2021-104BE","EPOCH":"2025-09-15T01:08:54.821472","MEAN_MOTION":15.08837303,"ECCENTRICITY":0.00013207,"INCLINATION":53.217,"RA_OF_ASC_NODE":287.6083,"ARG_OF_PERICENTER":86.5857,"MEAN_ANOMALY":273.5286,"EPHEMERIS_TYPE":0,"CLASSIFICATION_TYPE":"U","NORAD_CAT_ID":49460,"ELEMENT_SET_NO":999,"REV_AT_EPOCH":21225,"BSTAR":-6.549605e-6,"MEAN_MOTION_DOT":-3.92e-6,"MEAN_MOTION_DDOT":0},{"OBJECT_NAME":"STARLINK-3219","OBJECT_ID":"2021-115A","EPOCH":"2025-09-15T04:23:42.075168","MEAN_MOTION":15.08834144,"ECCENTRICITY":0.00015365,"INCLINATION":53.2173,"RA_OF_ASC_NODE":217.2203,"ARG_OF_PERICENTER":89.611,"MEAN_ANOMALY":270.5058,"EPHEMERIS_TYPE":0,"CLASSIFICATION_TYPE":"U","NORAD_CAT_ID":49724,"ELEMENT_SET_NO":999,"REV_AT_EPOCH":20903,"BSTAR":-7.132544e-6,"MEAN_MOTION_DOT":-4.01e-6,"MEAN_MOTION_DDOT":0},{"OBJECT_NAME":"STARLINK-3218","OBJECT_ID":"2021-115B","EPOCH":"2025-09-15T06:30:51.602112","MEAN_MOTION":15.08838773,"ECCENTRICITY":0.00014537,"INCLINATION":53.2153,"RA_OF_ASC_NODE":216.7089,"ARG_OF_PERICENTER":86.9068,"MEAN_ANOMALY":273.209,"EPHEMERIS_TYPE":0,"CLASSIFICATION_TYPE":"U","NORAD_CAT_ID":49725,"ELEMENT_SET_NO":999,"REV_AT_EPOCH":20905,"BSTAR":5.464208e-5,"MEAN_MOTION_DOT":5.82e-6,"MEAN_MOTION_DDOT":0},{"OBJECT_NAME":"STARLINK-3242","OBJECT_ID":"2021-115D","EPOCH":"2025-09-13T15:16:40.185408","MEAN_MOTION":15.08833412,"ECCENTRICITY":0.0001699,"INCLINATION":53.2157,"RA_OF_ASC_NODE":233.9431,"ARG_OF_PERICENTER":90.4505,"MEAN_ANOMALY":269.6682,"EPHEMERIS_TYPE":0,"CLASSIFICATION_TYPE":"U","NORAD_CAT_ID":49727,"ELEMENT_SET_NO":999,"REV_AT_EPOCH":20866,"BSTAR":-2.2086948e-5,"MEAN_MOTION_DOT":-6.39e-6,"MEAN_MOTION_DDOT":0},{"OBJECT_NAME":"STARLINK-3240","OBJECT_ID":"2021-115E","EPOCH":"2025-09-14T05:40:26.450400","MEAN_MOTION":15.08836549,"ECCENTRICITY":0.00014574,"INCLINATION":53.2152,"RA_OF_ASC_NODE":231.251,"ARG_OF_PERICENTER":86.6381,"MEAN_ANOMALY":273.4778,"EPHEMERIS_TYPE":0,"CLASSIFICATION_TYPE":"U","NORAD_CAT_ID":49728,"ELEMENT_SET_NO":999,"REV_AT_EPOCH":20875,"BSTAR":2.4416943e-5,"MEAN_MOTION_DOT":1.01e-6,"MEAN_MOTION_DDOT":0},{"OBJECT_NAME":"STARLINK-3251","OBJECT_ID":"2021-115F","EPOCH":"2025-09-15T06:56:01.094784","MEAN_MOTION":15.08827324,"ECCENTRICITY":0.00014329,"INCLINATION":53.2156,"RA_OF_ASC_NODE":226.4099,"ARG_OF_PERICENTER":97.7576,"MEAN_ANOMALY":262.3579,"EPHEMERIS_TYPE":0,"CLASSIFICATION_TYPE":"U","NORAD_CAT_ID":49729,"ELEMENT_SET_NO":999,"REV_AT_EPOCH":20891,"BSTAR":-8.293023e-6,"MEAN_MOTION_DOT":-4.2e-6,"MEAN_MOTION_DDOT":0},{"OBJECT_NAME":"STARLINK-3249","OBJECT_ID":"2021-115G","EPOCH":"2025-09-15T04:38:15.762336","MEAN_MOTION":15.08842163,"ECCENTRICITY":0.00014745,"INCLINATION":53.2188,"RA_OF_ASC_NODE":227.1484,"ARG_OF_PERICENTER":86.6555,"MEAN_ANOMALY":273.4606,"EPHEMERIS_TYPE":0,"CLASSIFICATION_TYPE":"U","NORAD_CAT_ID":49730,"ELEMENT_SET_NO":999,"REV_AT_EPOCH":20889,"BSTAR":7.1993411e-5,"MEAN_MOTION_DOT":8.58e-6,"MEAN_MOTION_DDOT":0},{"OBJECT_NAME":"STARLINK-3246","OBJECT_ID":"2021-115J","EPOCH":"2025-09-15T04:48:51.435648","MEAN_MOTION":15.08837136,"ECCENTRICITY":0.00014803,"INCLINATION":53.2152,"RA_OF_ASC_NODE":227.0771,"ARG_OF_PERICENTER":86.882,"MEAN_ANOMALY":273.2341,"EPHEMERIS_TYPE":0,"CLASSIFICATION_TYPE":"U","NORAD_CAT_ID":49732,"ELEMENT_SET_NO":999,"REV_AT_EPOCH":20889,"BSTAR":7.656323e-6,"MEAN_MOTION_DOT":-1.66e-6,"MEAN_MOTION_DDOT":0},{"OBJECT_NAME":"STARLINK-3252","OBJECT_ID":"2021-115K","EPOCH":"2025-09-15T04:17:02.120928","MEAN_MOTION":15.08841196,"ECCENTRICITY":0.00016108,"INCLINATION":53.22,"RA_OF_ASC_NODE":227.0232,"ARG_OF_PERICENTER":81.8741,"MEAN_ANOMALY":278.2434,"EPHEMERIS_TYPE":0,"CLASSIFICATION_TYPE":"U","NORAD_CAT_ID":49733,"ELEMENT_SET_NO":999,"REV_AT_EPOCH":20889,"BSTAR":3.2569205e-5,"MEAN_MOTION_DOT":2.3e-6,"MEAN_MOTION_DDOT":0},{"OBJECT_NAME":"STARLINK-3238","OBJECT_ID":"2021-115L","EPOCH":"2025-09-15T06:20:16.643328","MEAN_MOTION":15.0882199,"ECCENTRICITY":0.00013587,"INCLINATION":53.2184,"RA_OF_ASC_NODE":216.6643,"ARG_OF_PERICENTER":94.8484,"MEAN_ANOMALY":265.2663,"EPHEMERIS_TYPE":0,"CLASSIFICATION_TYPE":"U","NORAD_CAT_ID":49734,"ELEMENT_SET_NO":999,"REV_AT_EPOCH":20905,"BSTAR":-5.5927154e-5,"MEAN_MOTION_DOT":-1.177e-5,"MEAN_MOTION_DDOT":0},{"OBJECT_NAME":"STARLINK-3113","OBJECT_ID":"2021-115M","EPOCH":"2025-09-15T04:06:25.037568","MEAN_MOTION":15.08840589,"ECCENTRICITY":0.00013546,"INCLINATION":53.217,"RA_OF_ASC_NODE":226.9393,"ARG_OF_PERICENTER":88.3813,"MEAN_ANOMALY":271.7335,"EPHEMERIS_TYPE":0,"CLASSIFICATION_TYPE":"U","NORAD_CAT_ID":49735,"ELEMENT_SET_NO":999,"REV_AT_EPOCH":20889,"BSTAR":8.174587e-5,"MEAN_MOTION_DOT":1.013e-5,"MEAN_MOTION_DDOT":0},{"OBJECT_NAME":"STARLINK-3148","OBJECT_ID":"2021-115N","EPOCH":"2025-09-15T06:14:55.251744","MEAN_MOTION":15.0883907,"ECCENTRICITY":0.00014761,"INCLINATION":53.2146,"RA_OF_ASC_NODE":216.5359,"ARG_OF_PERICENTER":90.4257,"MEAN_ANOMALY":269.6905,"EPHEMERIS_TYPE":0,"CLASSIFICATION_TYPE":"U","NORAD_CAT_ID":49736,"ELEMENT_SET_NO":999,"REV_AT_EPOCH":20905,"BSTAR":6.0977935e-5,"MEAN_MOTION_DOT":6.83e-6,"MEAN_MOTION_DDOT":0},{"OBJECT_NAME":"STARLINK-3225","OBJECT_ID":"2021-115P","EPOCH":"2025-09-15T06:25:32.578752","MEAN_MOTION":15.08837327,"ECCENTRICITY":0.00014514,"INCLINATION":53.2156,"RA_OF_ASC_NODE":216.6195,"ARG_OF_PERICENTER":88.8207,"MEAN_ANOMALY":271.2951,"EPHEMERIS_TYPE":0,"CLASSIFICATION_TYPE":"U","NORAD_CAT_ID":49737,"ELEMENT_SET_NO":999,"REV_AT_EPOCH":20905,"BSTAR":9.012215e-6,"MEAN_MOTION_DOT":-1.45e-6,"MEAN_MOTION_DDOT":0},{"OBJECT_NAME":"STARLINK-3143","OBJECT_ID":"2021-115Q","EPOCH":"2025-09-15T03:53:16.317024","MEAN_MOTION":15.08841554,"ECCENTRICITY":0.00014207,"INCLINATION":53.2169,"RA_OF_ASC_NODE":217.3031,"ARG_OF_PERICENTER":85.8568,"MEAN_ANOMALY":274.2587,"EPHEMERIS_TYPE":0,"CLASSIFICATION_TYPE":"U","NORAD_CAT_ID":49738,"ELEMENT_SET_NO":999,"REV_AT_EPOCH":20903,"BSTAR":3.7506187e-5,"MEAN_MOTION_DOT":3.09e-6,"MEAN_MOTION_DDOT":0}]
