STARLINK-3156           
1 49458U 21104BC  25257.40019690  .00003767  00000+0  25480-3 0  9992
2 49458  53.2161 290.5172 0001722  92.0883 268.0307 15.08821450212160
STARLINK-3141           
1 49459U 21104BD  25257.38914234 -.00000492  00000+0 -12800-4 0  9995
2 49459  53.2176 290.5652 0001554  71.0330 289.0830 15.08832824212168
STARLINK-3140           
1 49460U 21104BE  25258.04785673 -.00000392  00000+0 -65496-5 0  9993
2 49460  53.2170 287.6083 0001320  86.5857 273.5286 15.08837303212255
STARLINK-3219           
1 49724U 21115A   25258.18312587 -.00000401  00000+0 -71325-5 0  9992
2 49724  53.2173 217.2203 0001536  89.6110 270.5058 15.08834144209035
STARLINK-3218           
1 49725U 21115B   25258.27143058  .00000582  00000+0  54642-4 0  9998
2 49725  53.2153 216.7089 0001453  86.9068 273.2090 15.08838773209050
STARLINK-3242           
1 49727U 21115D   25256.63657622 -.00000639  00000+0 -22087-4 0  9998
2 49727  53.2157 233.9431 0001699  90.4505 269.6682 15.08833412208663
STARLINK-3240           
1 49728U 21115E   25257.23641725  .00000101  00000+0  24417-4 0  9994
2 49728  53.2152 231.2510 0001457  86.6381 273.4778 15.08836549208752
STARLINK-3251           
1 49729U 21115F   25258.28890156 -.00000420  00000+0 -82930-5 0  9996
2 49729  53.2156 226.4099 0001432  97.7576 262.3579 15.08827324208912
STARLINK-3249           
1 49730U 21115G   25258.19323799  .00000858  00000+0  71993-4 0  9991
2 49730  53.2188 227.1484 0001474  86.6555 273.4606 15.08842163208894
STARLINK-3246           
1 49732U 21115J   25258.20059532 -.00000166  00000+0  76563-5 0  9998
2 49732  53.2152 227.0771 0001480  86.8820 273.2341 15.08837136208897
STARLINK-3252           
1 49733U 21115K   25258.17849677  .00000230  00000+0  32569-4 0  9990
2 49733  53.2200 227.0232 0001610  81.8741 278.2434 15.08841196208895
STARLINK-3238           
1 49734U 21115L   25258.26408152 -.00001177  00000+0 -55927-4 0  9996
2 49734  53.2184 216.6643 0001358  94.8484 265.2663 15.08821990209053
STARLINK-3113           
1 49735U 21115M   25258.17112312  .00001013  00000+0  81746-4 0  9992
2 49735  53.2170 226.9393 0001354  88.3813 271.7335 15.08840589208899
STARLINK-3148           
1 49736U 21115N   25258.26036171  .00000683  00000+0  60978-4 0  9997
2 49736  53.2146 216.5359 0001476  90.4257 269.6905 15.08839070209052
STARLINK-3225           
1 49737U 21115P   25258.26773818 -.00000145  00000+0  90122-5 0  9993
2 49737  53.2156 216.6195 0001451  88.8207 271.2951 15.08837327209055
STARLINK-3143           
1 49738U 21115Q   25258.16199441  .00000309  00000+0  37506-4 0  9994
2 49738  53.2169 217.3031 0001420  85.8568 274.2587 15.08841554209033
